H1 CPF 01  gfz 2021 01 01 13  5012 terrasarx 
H2 0702601  6201 31698    2021 01 01 12 59 42 2021 01 06 00 00 42   120 1 1  0 0 0
H9
10 0 59219  82062.000000  0    2153922.229  -4503821.021  -4754408.154
10 0 59219  82182.000000  0    2209737.327  -5110444.851  -4064801.759
10 0 59219  82302.000000  0    2217255.693  -5628691.627  -3303956.993
10 0 59219  82422.000000  0    2177939.800  -6048605.830  -2485146.853
10 0 59219  82542.000000  0    2094230.250  -6361969.037  -1622693.950
10 0 59219  82662.000000  0    1969474.120  -6562471.636   -731720.256
10 0 59219  82782.000000  0    1807836.121  -6645850.124    172122.204
10 0 59219  82902.000000  0    1614189.798  -6609981.907   1072933.114
10 0 59219  83022.000000  0    1393995.039  -6454941.308   1954851.132
10 0 59219  83142.000000  0    1153162.735  -6183008.358   2802344.294
10 0 59219  83262.000000  0     897910.865  -5798632.420   3600490.987
10 0 59219  83382.000000  0     634615.701  -5308353.534   4335248.407
10 0 59219  83502.000000  0     369662.447  -4720683.140   4993702.520
10 0 59219  83622.000000  0     109297.956  -4045946.772   5564295.786
10 0 59219  83742.000000  0    -140509.310  -3296092.434   6037027.931
10 0 59219  83862.000000  0    -374199.853  -2484469.290   6403626.001
10 0 59219  83982.000000  0    -586742.090  -1625584.330   6657681.398
10 0 59219  84102.000000  0    -773736.804   -734840.924   6794756.180
10 0 59219  84222.000000  0    -931505.802    171738.858   6812457.058
10 0 59219  84342.000000  0   -1057163.388   1077802.895   6710474.655
10 0 59219  84462.000000  0   -1148668.606   1966963.408   6490588.265
10 0 59219  84582.000000  0   -1204858.155   2823092.660   6156636.797
10 0 59219  84702.000000  0   -1225460.019   3630615.947   5714456.037
10 0 59219  84822.000000  0   -1211086.881   4374797.310   5171782.066
10 0 59219  84942.000000  0   -1163209.367   5042013.217   4538122.635
10 0 59219  85062.000000  0   -1084110.448   5620010.006   3824595.430
10 0 59219  85182.000000  0    -976820.445   6098136.638   3043736.191
10 0 59219  85302.000000  0    -845036.872   6467552.256   2209281.186
10 0 59219  85422.000000  0    -693026.441   6721400.474   1335921.244
10 0 59219  85542.000000  0    -525513.336   6854943.452    439037.649
10 0 59219  85662.000000  0    -347556.989   6865655.420   -465575.572
10 0 59219  85782.000000  0    -164422.242   6753272.766  -1361999.228
10 0 59219  85902.000000  0      18554.516   6519795.846  -2234479.462
10 0 59219  86022.000000  0     196098.733   6169444.480  -3067710.908
10 0 59219  86142.000000  0     363128.286   5708571.938  -3847108.687
10 0 59219  86262.000000  0     514878.661   5145538.091  -4559064.696
10 0 59219  86382.000000  0     647019.359   4490545.216  -5191182.481
99
